[{"OBJECT_NAME":"STARLINK-4703","OBJECT_ID":"2022-114AP","EPOCH":"2026-03-09T22:39:41.992128","MEAN_MOTION":15.0884087,"ECCENTRICITY":0.00014238,"INCLINATION":53.2183,"RA_OF_ASC_NODE":292.7235,"ARG_OF_PERICENTER":81.7686,"MEAN_ANOMALY":278.3467,"EPHEMERIS_TYPE":0,"CLASSIFICATION_TYPE":"U","NORAD_CAT_ID":53855,"ELEMENT_SET_NO":999,"REV_AT_EPOCH":19301,"BSTAR":8.123266e-6,"MEAN_MOTION_DOT":-1.59e-6,"MEAN_MOTION_DDOT":0},{"OBJECT_NAME":"COSMOS 886 DEB","OBJECT_ID":"1976-126AN","EPOCH":"2026-03-09T12:28:16.403520","MEAN_MOTION":13.47851871,"ECCENTRICITY":0.0740468,"INCLINATION":65.8391,"RA_OF_ASC_NODE":149.6537,"ARG_OF_PERICENTER":339.428,"MEAN_ANOMALY":17.8327,"EPHEMERIS_TYPE":0,"CLASSIFICATION_TYPE":"U","NORAD_CAT_ID":9826,"ELEMENT_SET_NO":999,"REV_AT_EPOCH":34894,"BSTAR":0.00081724115,"MEAN_MOTION_DOT":2.801e-5,"MEAN_MOTION_DDOT":0}]
